NUSAT-26 (M SOMERVILLE) 
1 52184U 22033AD  26198.27242214  .00010002  00000+0  22645-3 0  9994
2 52184  97.2336 277.1393 0007108 131.9895 228.1960 15.43293583109344
NUSAT-33 (ALBANIA-2)    
1 55047U 23001AQ  26198.26753612  .00004720  00000+0  17395-3 0  9995
2 55047  97.3052 258.5982 0004714 305.1608  54.9190 15.28285684196909
NUSAT-35 (WILLIAMINA)   
1 55048U 23001AR  26198.27166251  .00007249  00000+0  20968-3 0  9993
2 55048  97.1830 250.2713 0010201   2.5937 357.5358 15.35856204197026
NUSAT-39 (TIKVAH ALPER) 
1 56201U 23054Z   26198.17992743  .00015976  00000+0  30637-3 0  9995
2 56201  97.3088 108.2370 0001612 309.3452  50.7656 15.48082739183095
NUSAT-38 (MARIA AGNESI) 
1 56202U 23054AA  26198.23517484  .00019869  00000+0  33965-3 0  9990
2 56202  97.3028 109.0364 0008486 318.6007  41.4602 15.51280539183165
NUSAT-37 (JOAN CLARKE)  
1 56203U 23054AB  26198.28227196  .00031039  00000+0  38799-3 0  9997
2 56203  97.2597 105.9779 0008082 138.0980 222.0897 15.59742463183336
NUSAT-40 (C SHOEMAKER)  
1 56943U 23084M   26198.31021693  .00097794  00000+0  45982-3 0  9991
2 56943  97.4867 347.3651 0003993 182.3823 177.7427 15.82864495173569
NUSAT-41 (C PAYNE-G)    
1 56944U 23084N   26198.34044219  .00005936  00000+0  20590-3 0  9999
2 56944  97.5558 335.5447 0006646 202.7666 157.3281 15.30179574172392
NUSAT-42 (M WONENBURGER)
1 56966U 23084AL  26198.26276414  .00013035  00000+0  26371-3 0  9990
2 56966  97.5755 343.6728 0006810 139.7610 220.4144 15.46563947172723
NUSAT-44 (MARIA MITCHE*)
1 59122U 24043AA  26198.23126700  .00005900  00000+0  20659-3 0  9997
2 59122  97.5491 338.9543 0006553 125.7325 234.4526 15.29874247131869
NUSAT-50 (NANCY ROMAN)  
1 60493U 24149AB  26198.18559340  .00004879  00000+0  16886-3 0  9992
2 60493  97.3780 279.2408 0004888  96.8427 263.3370 15.30339314106715
NUSAT-48 (HENRIETTA LE*)
1 60498U 24149AG  26198.17466784  .00004800  00000+0  16639-3 0  9995
2 60498  97.3914 279.5257 0004959 152.7401 207.4101 15.30294338106725
NUSAT-49 (KLARA DAN VO*)
1 60500U 24149AJ  26198.21718721  .00001697  00000+0  61424-4 0  9999
2 60500  97.3781 279.3028 0002525 161.7492 198.3840 15.29800004106721
NUSAT-45 (UZMASAT-1)    
1 62640U 25009AH  26198.00953000  .00004187  00000+0  14757-3 0  9993
2 62640  97.3588 278.9412 0001891 172.0211 188.1060 15.29829453 83481
NUSAT-52                
1 66692U 25276AC  26197.44474633  .00002517  00000+0  11990-3 0  9998
2 66692  97.4198 270.5100 0001624 270.1215  89.9834 15.20043584 34869
NUSAT-51 (YVONNE BRILL) 
1 66740U 25276CC  26197.77451849  .00003146  00000+0  14676-3 0  9995
2 66740  97.4202 270.9789 0001839 227.3885 132.7196 15.20576546 34925
