{"fetched_at":"2026-07-17T17:38:27.058Z","source":"https://celestrak.org/NORAD/elements/gp.php?NAME=NUSAT&FORMAT=JSON","constellation":"satellogic","records":[{"OBJECT_NAME":"NUSAT-26 (M SOMERVILLE)","OBJECT_ID":"2022-033AD","EPOCH":"2026-07-17T06:32:17.272896","CLASSIFICATION_TYPE":"U","MEAN_MOTION":15.43293583,"ECCENTRICITY":0.00071081,"INCLINATION":97.2336,"RA_OF_ASC_NODE":277.1393,"ARG_OF_PERICENTER":131.9895,"MEAN_ANOMALY":228.196,"EPHEMERIS_TYPE":0,"NORAD_CAT_ID":52184,"ELEMENT_SET_NO":999,"REV_AT_EPOCH":10934,"BSTAR":0.00022644923,"MEAN_MOTION_DOT":0.00010002,"MEAN_MOTION_DDOT":0},{"OBJECT_NAME":"NUSAT-33 (ALBANIA-2)","OBJECT_ID":"2023-001AQ","EPOCH":"2026-07-17T06:25:15.120768","CLASSIFICATION_TYPE":"U","MEAN_MOTION":15.28285684,"ECCENTRICITY":0.00047141,"INCLINATION":97.3052,"RA_OF_ASC_NODE":258.5982,"ARG_OF_PERICENTER":305.1608,"MEAN_ANOMALY":54.919,"EPHEMERIS_TYPE":0,"NORAD_CAT_ID":55047,"ELEMENT_SET_NO":999,"REV_AT_EPOCH":19690,"BSTAR":0.00017395339,"MEAN_MOTION_DOT":0.0000472,"MEAN_MOTION_DDOT":0},{"OBJECT_NAME":"NUSAT-35 (WILLIAMINA)","OBJECT_ID":"2023-001AR","EPOCH":"2026-07-17T06:31:11.640864","CLASSIFICATION_TYPE":"U","MEAN_MOTION":15.35856204,"ECCENTRICITY":0.00102018,"INCLINATION":97.183,"RA_OF_ASC_NODE":250.2713,"ARG_OF_PERICENTER":2.5937,"MEAN_ANOMALY":357.5358,"EPHEMERIS_TYPE":0,"NORAD_CAT_ID":55048,"ELEMENT_SET_NO":999,"REV_AT_EPOCH":19702,"BSTAR":0.00020967875,"MEAN_MOTION_DOT":0.00007249,"MEAN_MOTION_DDOT":0},{"OBJECT_NAME":"NUSAT-39 (TIKVAH ALPER)","OBJECT_ID":"2023-054Z","EPOCH":"2026-07-17T04:19:05.729952","CLASSIFICATION_TYPE":"U","MEAN_MOTION":15.48082739,"ECCENTRICITY":0.00016129,"INCLINATION":97.3088,"RA_OF_ASC_NODE":108.237,"ARG_OF_PERICENTER":309.3452,"MEAN_ANOMALY":50.7656,"EPHEMERIS_TYPE":0,"NORAD_CAT_ID":56201,"ELEMENT_SET_NO":999,"REV_AT_EPOCH":18309,"BSTAR":0.00030637442,"MEAN_MOTION_DOT":0.00015976,"MEAN_MOTION_DDOT":0},{"OBJECT_NAME":"NUSAT-38 (MARIA AGNESI)","OBJECT_ID":"2023-054AA","EPOCH":"2026-07-17T05:38:39.106176","CLASSIFICATION_TYPE":"U","MEAN_MOTION":15.51280539,"ECCENTRICITY":0.00084861,"INCLINATION":97.3028,"RA_OF_ASC_NODE":109.0364,"ARG_OF_PERICENTER":318.6007,"MEAN_ANOMALY":41.4602,"EPHEMERIS_TYPE":0,"NORAD_CAT_ID":56202,"ELEMENT_SET_NO":999,"REV_AT_EPOCH":18316,"BSTAR":0.00033964604,"MEAN_MOTION_DOT":0.00019869,"MEAN_MOTION_DDOT":0},{"OBJECT_NAME":"NUSAT-37 (JOAN CLARKE)","OBJECT_ID":"2023-054AB","EPOCH":"2026-07-17T06:46:28.297344","CLASSIFICATION_TYPE":"U","MEAN_MOTION":15.59742463,"ECCENTRICITY":0.00080829,"INCLINATION":97.2597,"RA_OF_ASC_NODE":105.9779,"ARG_OF_PERICENTER":138.098,"MEAN_ANOMALY":222.0897,"EPHEMERIS_TYPE":0,"NORAD_CAT_ID":56203,"ELEMENT_SET_NO":999,"REV_AT_EPOCH":18333,"BSTAR":0.00038798654,"MEAN_MOTION_DOT":0.00031039,"MEAN_MOTION_DDOT":0},{"OBJECT_NAME":"NUSAT-40 (C SHOEMAKER)","OBJECT_ID":"2023-084M","EPOCH":"2026-07-17T07:26:42.742752","CLASSIFICATION_TYPE":"U","MEAN_MOTION":15.82864495,"ECCENTRICITY":0.00039937,"INCLINATION":97.4867,"RA_OF_ASC_NODE":347.3651,"ARG_OF_PERICENTER":182.3823,"MEAN_ANOMALY":177.7427,"EPHEMERIS_TYPE":0,"NORAD_CAT_ID":56943,"ELEMENT_SET_NO":999,"REV_AT_EPOCH":17356,"BSTAR":0.00045982449,"MEAN_MOTION_DOT":0.00097794,"MEAN_MOTION_DDOT":0},{"OBJECT_NAME":"NUSAT-41 (C PAYNE-G)","OBJECT_ID":"2023-084N","EPOCH":"2026-07-17T08:10:14.205216","CLASSIFICATION_TYPE":"U","MEAN_MOTION":15.30179574,"ECCENTRICITY":0.00066469,"INCLINATION":97.5558,"RA_OF_ASC_NODE":335.5447,"ARG_OF_PERICENTER":202.7666,"MEAN_ANOMALY":157.3281,"EPHEMERIS_TYPE":0,"NORAD_CAT_ID":56944,"ELEMENT_SET_NO":999,"REV_AT_EPOCH":17239,"BSTAR":0.00020589764,"MEAN_MOTION_DOT":0.00005936,"MEAN_MOTION_DDOT":0},{"OBJECT_NAME":"NUSAT-42 (M WONENBURGER)","OBJECT_ID":"2023-084AL","EPOCH":"2026-07-17T06:18:22.821696","CLASSIFICATION_TYPE":"U","MEAN_MOTION":15.46563947,"ECCENTRICITY":0.00068108,"INCLINATION":97.5755,"RA_OF_ASC_NODE":343.6728,"ARG_OF_PERICENTER":139.761,"MEAN_ANOMALY":220.4144,"EPHEMERIS_TYPE":0,"NORAD_CAT_ID":56966,"ELEMENT_SET_NO":999,"REV_AT_EPOCH":17272,"BSTAR":0.00026370811,"MEAN_MOTION_DOT":0.00013035,"MEAN_MOTION_DDOT":0},{"OBJECT_NAME":"NUSAT-44 (MARIA MITCHELL)","OBJECT_ID":"2024-043AA","EPOCH":"2026-07-17T05:33:01.468800","CLASSIFICATION_TYPE":"U","MEAN_MOTION":15.29874247,"ECCENTRICITY":0.00065537,"INCLINATION":97.5491,"RA_OF_ASC_NODE":338.9543,"ARG_OF_PERICENTER":125.7325,"MEAN_ANOMALY":234.4526,"EPHEMERIS_TYPE":0,"NORAD_CAT_ID":59122,"ELEMENT_SET_NO":999,"REV_AT_EPOCH":13186,"BSTAR":0.00020658682,"MEAN_MOTION_DOT":0.000059,"MEAN_MOTION_DDOT":0},{"OBJECT_NAME":"NUSAT-50 (NANCY ROMAN)","OBJECT_ID":"2024-149AB","EPOCH":"2026-07-17T04:27:15.269760","CLASSIFICATION_TYPE":"U","MEAN_MOTION":15.30339314,"ECCENTRICITY":0.00048884,"INCLINATION":97.378,"RA_OF_ASC_NODE":279.2408,"ARG_OF_PERICENTER":96.8427,"MEAN_ANOMALY":263.337,"EPHEMERIS_TYPE":0,"NORAD_CAT_ID":60493,"ELEMENT_SET_NO":999,"REV_AT_EPOCH":10671,"BSTAR":0.00016885633,"MEAN_MOTION_DOT":0.00004879,"MEAN_MOTION_DDOT":0},{"OBJECT_NAME":"NUSAT-48 (HENRIETTA LEAVITT)","OBJECT_ID":"2024-149AG","EPOCH":"2026-07-17T04:11:31.301376","CLASSIFICATION_TYPE":"U","MEAN_MOTION":15.30294338,"ECCENTRICITY":0.00049594,"INCLINATION":97.3914,"RA_OF_ASC_NODE":279.5257,"ARG_OF_PERICENTER":152.7401,"MEAN_ANOMALY":207.4101,"EPHEMERIS_TYPE":0,"NORAD_CAT_ID":60498,"ELEMENT_SET_NO":999,"REV_AT_EPOCH":10672,"BSTAR":0.00016639187,"MEAN_MOTION_DOT":0.000048,"MEAN_MOTION_DDOT":0},{"OBJECT_NAME":"NUSAT-49 (KLARA DAN VON NEUMANN)","OBJECT_ID":"2024-149AJ","EPOCH":"2026-07-17T05:12:44.974944","CLASSIFICATION_TYPE":"U","MEAN_MOTION":15.29800004,"ECCENTRICITY":0.0002525,"INCLINATION":97.3781,"RA_OF_ASC_NODE":279.3028,"ARG_OF_PERICENTER":161.7492,"MEAN_ANOMALY":198.384,"EPHEMERIS_TYPE":0,"NORAD_CAT_ID":60500,"ELEMENT_SET_NO":999,"REV_AT_EPOCH":10672,"BSTAR":0.000061424254,"MEAN_MOTION_DOT":0.00001697,"MEAN_MOTION_DDOT":0},{"OBJECT_NAME":"NUSAT-45 (UZMASAT-1)","OBJECT_ID":"2025-009AH","EPOCH":"2026-07-17T00:13:43.392000","CLASSIFICATION_TYPE":"U","MEAN_MOTION":15.29829453,"ECCENTRICITY":0.00018912,"INCLINATION":97.3588,"RA_OF_ASC_NODE":278.9412,"ARG_OF_PERICENTER":172.0211,"MEAN_ANOMALY":188.106,"EPHEMERIS_TYPE":0,"NORAD_CAT_ID":62640,"ELEMENT_SET_NO":999,"REV_AT_EPOCH":8348,"BSTAR":0.00014757047,"MEAN_MOTION_DOT":0.00004187,"MEAN_MOTION_DDOT":0},{"OBJECT_NAME":"NUSAT-52","OBJECT_ID":"2025-276AC","EPOCH":"2026-07-16T10:40:26.082912","CLASSIFICATION_TYPE":"U","MEAN_MOTION":15.20043584,"ECCENTRICITY":0.0001624,"INCLINATION":97.4198,"RA_OF_ASC_NODE":270.51,"ARG_OF_PERICENTER":270.1215,"MEAN_ANOMALY":89.9834,"EPHEMERIS_TYPE":0,"NORAD_CAT_ID":66692,"ELEMENT_SET_NO":999,"REV_AT_EPOCH":3486,"BSTAR":0.0001199,"MEAN_MOTION_DOT":0.00002517,"MEAN_MOTION_DDOT":0},{"OBJECT_NAME":"NUSAT-51 (YVONNE BRILL)","OBJECT_ID":"2025-276CC","EPOCH":"2026-07-16T18:35:18.397536","CLASSIFICATION_TYPE":"U","MEAN_MOTION":15.20576546,"ECCENTRICITY":0.00018393,"INCLINATION":97.4202,"RA_OF_ASC_NODE":270.9789,"ARG_OF_PERICENTER":227.3885,"MEAN_ANOMALY":132.7196,"EPHEMERIS_TYPE":0,"NORAD_CAT_ID":66740,"ELEMENT_SET_NO":999,"REV_AT_EPOCH":3492,"BSTAR":0.00014676408,"MEAN_MOTION_DOT":0.00003146,"MEAN_MOTION_DDOT":0}]}
